[{"OBJECT_NAME":"JILIN-1 GAOFEN 2F","OBJECT_ID":"2021-097A","EPOCH":"2026-03-09T22:15:16.366464","MEAN_MOTION":15.06938169,"ECCENTRICITY":0.00186372,"INCLINATION":97.6538,"RA_OF_ASC_NODE":195.5232,"ARG_OF_PERICENTER":201.1609,"MEAN_ANOMALY":158.885,"EPHEMERIS_TYPE":0,"CLASSIFICATION_TYPE":"U","NORAD_CAT_ID":49338,"ELEMENT_SET_NO":999,"REV_AT_EPOCH":24136,"BSTAR":0.0003789548,"MEAN_MOTION_DOT":5.624e-5,"MEAN_MOTION_DDOT":0},{"OBJECT_NAME":"STARLINK-34339","OBJECT_ID":"2025-112Q","EPOCH":"2026-03-09T17:30:55.989216","MEAN_MOTION":15.05656399,"ECCENTRICITY":0.00017477,"INCLINATION":97.6026,"RA_OF_ASC_NODE":121.5536,"ARG_OF_PERICENTER":87.2897,"MEAN_ANOMALY":272.853,"EPHEMERIS_TYPE":0,"CLASSIFICATION_TYPE":"U","NORAD_CAT_ID":64160,"ELEMENT_SET_NO":999,"REV_AT_EPOCH":4331,"BSTAR":0.00028887025,"MEAN_MOTION_DOT":4.111e-5,"MEAN_MOTION_DDOT":0}]
